{"type":"FeatureCollection","features":[{"type":"Feature","geometry":{"type":"MultiPolygon","coordinates":[[[[-120.0,41.184],[-119.999,41.995],[-120.99,41.993],[-122.378,42.01],[-123.044,42.003],[-123.146,42.009],[-123.657,41.995],[-124.329,41.998],[-124.307,41.993],[-124.289,41.97],[-124.292,41.928],[-124.276,41.903],[-124.285,41.859],[-124.312,41.859],[-124.348,41.883],[-124.401,41.886],[-124.435,41.857],[-124.439,41.825],[-124.392,41.772],[-124.331,41.734],[-124.212,41.681],[-124.21,41.635],[-124.19,41.608],[-124.185,41.566],[-124.16,41.543],[-124.133,41.432],[-124.14,41.382],[-124.177,41.39],[-124.207,41.385],[-124.231,41.369],[-124.242,41.343],[-124.238,41.321],[-124.22,41.303],[-124.161,41.289],[-124.196,41.185],[-124.238,41.166],[-124.252,41.134],[-124.25,41.099],[-124.227,41.047],[-124.205,41.014],[-124.183,41.001],[-124.198,40.951],[-124.233,40.869],[-124.403,40.613],[-124.448,40.53],[-124.453,40.493],[-124.479,40.453],[-124.481,40.428],[-124.428,40.362],[-124.418,40.314],[-124.428,40.289],[-124.428,40.258],[-124.411,40.225],[-124.334,40.167],[-124.272,40.134],[-124.231,40.093],[-124.154,40.064],[-124.144,40.052],[-124.144,40.018],[-124.133,40.0],[-124.109,39.979],[-124.079,39.972],[-124.035,39.931],[-124.005,39.889],[-123.983,39.877],[-123.954,39.827],[-123.911,39.8],[-123.901,39.78],[-123.896,39.711],[-123.88,39.689],[-123.857,39.675],[-123.853,39.592],[-123.835,39.549],[-123.853,39.515],[-123.868,39.508],[-123.875,39.494],[-123.889,39.444],[-123.895,39.348],[-123.85,39.231],[-123.841,39.187],[-123.809,39.141],[-123.762,39.041],[-123.763,39.009],[-123.797,38.99],[-123.81,38.961],[-123.785,38.894],[-123.641,38.764],[-123.592,38.74],[-123.566,38.709],[-123.511,38.681],[-123.361,38.51],[-123.324,38.499],[-123.307,38.479],[-123.269,38.458],[-123.22,38.442],[-123.196,38.41],[-123.165,38.388],[-123.134,38.346],[-123.141,38.311],[-123.135,38.296],[-123.05,38.214],[-123.015,38.149],[-123.064,38.036],[-123.085,38.008],[-123.084,37.983],[-123.068,37.959],[-123.023,37.942],[-122.953,37.941],[-122.919,37.955],[-122.902,37.977],[-122.889,37.974],[-122.85,37.946],[-122.83,37.91],[-122.789,37.894],[-122.767,37.866],[-122.716,37.846],[-122.676,37.849],[-122.612,37.815],[-122.588,37.789],[-122.567,37.639],[-122.588,37.579],[-122.575,37.5],[-122.568,37.479],[-122.547,37.458],[-122.51,37.442],[-122.504,37.412],[-122.467,37.35],[-122.484,37.25],[-122.464,37.178],[-122.446,37.15],[-122.397,37.11],[-122.393,37.087],[-122.376,37.066],[-122.348,37.056],[-122.314,37.055],[-122.276,37.025],[-122.251,36.986],[-122.172,36.943],[-122.076,36.91],[-122.001,36.648],[-122.041,36.6],[-122.044,36.578],[-122.017,36.537],[-122.022,36.509],[-121.999,36.466],[-121.997,36.441],[-121.981,36.42],[-121.958,36.285],[-121.901,36.24],[-121.88,36.21],[-121.771,36.162],[-121.728,36.129],[-121.674,36.065],[-121.648,35.999],[-121.632,35.979],[-121.561,35.944],[-121.532,35.885],[-121.501,35.843],[-121.456,35.818],[-121.428,35.786],[-121.393,35.763],[-121.366,35.68],[-121.348,35.665],[-121.324,35.625],[-121.202,35.584],[-121.178,35.561],[-121.151,35.516],[-121.042,35.42],[-120.933,35.393],[-120.923,35.348],[-120.953,35.285],[-120.961,35.25],[-120.949,35.221],[-120.918,35.187],[-120.857,35.143],[-120.8,35.117],[-120.752,35.109],[-120.726,35.114],[-120.69,35.099],[-120.695,35.029],[-120.727,34.944],[-120.734,34.901],[-120.72,34.869],[-120.673,34.839],[-120.702,34.748],[-120.665,34.696],[-120.686,34.645],[-120.705,34.621],[-120.713,34.575],[-120.706,34.552],[-120.682,34.525],[-120.642,34.504],[-120.594,34.504],[-120.559,34.488],[-120.524,34.42],[-120.501,34.403],[-120.456,34.391],[-120.287,34.418],[-120.147,34.423],[-120.091,34.409],[-120.024,34.409],[-119.917,34.373],[-119.892,34.357],[-119.838,34.354],[-119.797,34.365],[-119.716,34.336],[-119.651,34.367],[-119.585,34.362],[-119.501,34.327],[-119.467,34.294],[-119.402,34.272],[-119.376,34.25],[-119.335,34.237],[-119.286,34.141],[-119.218,34.062],[-119.159,34.04],[-118.952,33.993],[-118.887,33.987],[-118.841,33.955],[-118.815,33.947],[-118.787,33.951],[-118.727,33.98],[-118.557,33.988],[-118.523,33.953],[-118.447,33.849],[-118.444,33.839],[-118.484,33.803],[-118.486,33.754],[-118.467,33.726],[-118.345,33.663],[-118.319,33.66],[-118.274,33.663],[-118.237,33.691],[-118.126,33.697],[-118.096,33.654],[-118.05,33.62],[-117.934,33.549],[-117.816,33.491],[-117.741,33.41],[-117.714,33.409],[-117.626,33.342],[-117.572,33.312],[-117.468,33.212],[-117.436,33.178],[-117.376,33.075],[-117.323,32.903],[-117.342,32.84],[-117.33,32.805],[-117.321,32.69],[-117.309,32.656],[-117.269,32.619],[-117.247,32.615],[-117.223,32.621],[-117.205,32.53],[-115.817,32.641],[-114.719,32.719],[-114.702,32.746],[-114.688,32.738],[-114.617,32.728],[-114.615,32.735],[-114.582,32.735],[-114.582,32.742],[-114.565,32.742],[-114.564,32.75],[-114.527,32.757],[-114.53,32.795],[-114.469,32.845],[-114.463,32.908],[-114.481,32.936],[-114.468,32.955],[-114.469,32.972],[-114.493,32.972],[-114.503,33.011],[-114.52,33.03],[-114.575,33.037],[-114.59,33.026],[-114.619,33.027],[-114.646,33.049],[-114.665,33.034],[-114.689,33.084],[-114.706,33.088],[-114.704,33.114],[-114.68,33.159],[-114.675,33.185],[-114.674,33.223],[-114.69,33.246],[-114.672,33.258],[-114.681,33.274],[-114.722,33.287],[-114.731,33.302],[-114.708,33.323],[-114.698,33.352],[-114.707,33.383],[-114.725,33.405],[-114.688,33.418],[-114.643,33.417],[-114.63,33.428],[-114.623,33.457],[-114.592,33.499],[-114.57,33.509],[-114.559,33.532],[-114.524,33.553],[-114.541,33.591],[-114.522,33.613],[-114.531,33.624],[-114.524,33.635],[-114.533,33.652],[-114.514,33.66],[-114.53,33.667],[-114.532,33.675],[-114.524,33.686],[-114.496,33.697],[-114.494,33.708],[-114.512,33.734],[-114.505,33.76],[-114.528,33.815],[-114.52,33.825],[-114.53,33.858],[-114.503,33.868],[-114.526,33.901],[-114.508,33.904],[-114.536,33.934],[-114.523,33.955],[-114.5,33.962],[-114.459,33.995],[-114.466,34.011],[-114.438,34.023],[-114.434,34.087],[-114.412,34.11],[-114.367,34.119],[-114.353,34.133],[-114.321,34.139],[-114.287,34.171],[-114.257,34.173],[-114.23,34.187],[-114.225,34.204],[-114.166,34.25],[-114.165,34.26],[-114.131,34.263],[-114.138,34.303],[-114.157,34.318],[-114.177,34.349],[-114.226,34.366],[-114.264,34.401],[-114.289,34.407],[-114.295,34.421],[-114.326,34.437],[-114.335,34.45],[-114.374,34.447],[-114.387,34.458],[-114.381,34.53],[-114.405,34.57],[-114.437,34.596],[-114.425,34.601],[-114.424,34.61],[-114.439,34.621],[-114.441,34.643],[-114.458,34.657],[-114.451,34.667],[-114.47,34.711],[-114.488,34.717],[-114.553,34.767],[-114.587,34.836],[-114.634,34.873],[-114.633,35.002],[-115.26,35.504],[-116.094,36.156],[-117.5,37.22],[-118.714,38.102],[-120.001,39.0],[-120.006,39.273],[-119.996,40.376],[-120.0,41.184]]],[[[-119.492,33.983],[-119.433,33.956],[-119.38,33.954],[-119.312,33.98],[-119.296,33.997],[-119.294,34.028],[-119.312,34.054],[-119.342,34.069],[-119.468,34.063],[-119.512,34.093],[-119.557,34.109],[-119.614,34.099],[-119.655,34.071],[-119.693,34.095],[-119.751,34.113],[-119.793,34.106],[-119.829,34.119],[-119.929,34.13],[-119.965,34.113],[-119.992,34.065],[-120.01,34.084],[-120.045,34.091],[-120.08,34.086],[-120.103,34.074],[-120.171,34.073],[-120.198,34.058],[-120.253,34.058],[-120.285,34.095],[-120.339,34.122],[-120.355,34.145],[-120.419,34.161],[-120.472,34.134],[-120.497,34.15],[-120.538,34.15],[-120.568,34.136],[-120.582,34.108],[-120.582,34.091],[-120.567,34.069],[-120.523,34.051],[-120.519,34.014],[-120.488,33.984],[-120.467,33.976],[-120.412,33.977],[-120.367,33.961],[-120.299,33.968],[-120.28,33.954],[-120.264,33.919],[-120.221,33.884],[-120.126,33.842],[-120.09,33.846],[-120.028,33.867],[-119.981,33.892],[-119.939,33.899],[-119.919,33.914],[-119.905,33.94],[-119.834,33.901],[-119.773,33.912],[-119.707,33.91],[-119.637,33.938],[-119.539,33.948],[-119.492,33.983]]],[[[-119.636,33.281],[-119.631,33.245],[-119.605,33.207],[-119.574,33.186],[-119.512,33.168],[-119.445,33.165],[-119.395,33.181],[-119.376,33.192],[-119.361,33.221],[-119.362,33.245],[-119.38,33.268],[-119.43,33.301],[-119.519,33.334],[-119.599,33.323],[-119.626,33.305],[-119.636,33.281]]],[[[-123.174,37.776],[-123.157,37.738],[-123.126,37.717],[-123.093,37.714],[-123.069,37.673],[-123.041,37.65],[-122.987,37.642],[-122.963,37.652],[-122.941,37.677],[-122.936,37.702],[-122.95,37.732],[-122.998,37.771],[-123.034,37.778],[-123.07,37.814],[-123.095,37.822],[-123.132,37.82],[-123.166,37.797],[-123.174,37.776]]],[[[-119.117,33.506],[-119.119,33.5],[-119.107,33.5],[-119.106,33.445],[-119.094,33.427],[-119.072,33.414],[-119.027,33.413],[-118.989,33.423],[-118.978,33.431],[-118.964,33.467],[-118.971,33.511],[-119.001,33.536],[-119.076,33.535],[-119.104,33.523],[-119.117,33.506]]],[[[-118.668,33.486],[-118.655,33.445],[-118.619,33.406],[-118.548,33.377],[-118.547,33.34],[-118.535,33.315],[-118.487,33.277],[-118.386,33.265],[-118.328,33.248],[-118.281,33.259],[-118.249,33.284],[-118.241,33.323],[-118.258,33.364],[-118.304,33.404],[-118.316,33.434],[-118.359,33.465],[-118.421,33.482],[-118.463,33.51],[-118.529,33.531],[-118.626,33.529],[-118.656,33.511],[-118.668,33.486]]],[[[-118.678,33.04],[-118.67,33.0],[-118.645,33.0],[-118.636,32.966],[-118.609,32.928],[-118.597,32.89],[-118.553,32.829],[-118.465,32.76],[-118.437,32.75],[-118.408,32.752],[-118.378,32.77],[-118.353,32.766],[-118.324,32.774],[-118.296,32.798],[-118.289,32.821],[-118.297,32.845],[-118.449,32.962],[-118.515,33.05],[-118.542,33.074],[-118.578,33.086],[-118.633,33.085],[-118.664,33.067],[-118.678,33.04]]]]},"properties":{"NAME":"California"}}]}